{"type": "FeatureCollection", "features": [ {"type": "Feature", "properties": {"norad_id": 34031, "name": "COSMOS 2251 DEB", "group": "cosmos-2251-debris", "lat": -32.873251364584746, "lon": 136.2591943935277, "alt_km": 691.7546659671216, "timestamp": "2025-12-06T20:37:56.468967+00:00", "meta": {"OBJECT_NAME": "COSMOS 2251 DEB", "OBJECT_ID": "1993-036HS", "EPOCH": "2025-12-06T11:03:29.380608", "MEAN_MOTION": 14.59570785, "ECCENTRICITY": 0.00229685, "INCLINATION": 74.0119, "RA_OF_ASC_NODE": 147.6988, "ARG_OF_PERICENTER": 268.271, "MEAN_ANOMALY": 121.9512, "EPHEMERIS_TYPE": 0, "CLASSIFICATION_TYPE": "U", "NORAD_CAT_ID": 34031, "ELEMENT_SET_NO": 999, "REV_AT_EPOCH": 88474, "BSTAR": 0.0022696142, "MEAN_MOTION_DOT": 0.00010817, "MEAN_MOTION_DDOT": 0}, "tle": {"line1": "1 34031U 93036HS  25340.46075672  .00010817  00000+0  22696-2 0  9996", "line2": "2 34031  74.0119 147.6988 0022968 268.2710 121.9512 14.59570785884744"}}, "geometry": {"type": "Point", "coordinates": [136.2591943935277, -32.873251364584746]}}, {"type": "Feature", "properties": {"norad_id": 34035, "name": "COSMOS 2251 DEB", "group": "cosmos-2251-debris", "lat": -63.12769552954037, "lon": -34.12262991869647, "alt_km": 716.1945548337189, "timestamp": "2025-12-06T20:37:56.468978+00:00", "meta": {"OBJECT_NAME": "COSMOS 2251 DEB", "OBJECT_ID": "1993-036HW", "EPOCH": "2025-12-06T06:39:33.255072", "MEAN_MOTION": 14.51819955, "ECCENTRICITY": 0.00443046, "INCLINATION": 74.0656, "RA_OF_ASC_NODE": 1.2911, "ARG_OF_PERICENTER": 4.2983, "MEAN_ANOMALY": 126.4132, "EPHEMERIS_TYPE": 0, "CLASSIFICATION_TYPE": "U", "NORAD_CAT_ID": 34035, "ELEMENT_SET_NO": 999, "REV_AT_EPOCH": 87872, "BSTAR": 0.0026317984, "MEAN_MOTION_DOT": 0.00010716, "MEAN_MOTION_DDOT": 0}, "tle": {"line1": "1 34035U 93036HW  25340.27746823  .00010716  00000+0  26318-2 0  9995", "line2": "2 34035  74.0656   1.2911 0044304   4.2983 126.4132 14.51819955878729"}}, "geometry": {"type": "Point", "coordinates": [-34.12262991869647, -63.12769552954037]}}, {"type": "Feature", "properties": {"norad_id": 34036, "name": "COSMOS 2251 DEB", "group": "cosmos-2251-debris", "lat": 8.519790074227474, "lon": 163.58843448677447, "alt_km": 595.8795559629398, "timestamp": "2025-12-06T20:37:56.468989+00:00", "meta": {"OBJECT_NAME": "COSMOS 2251 DEB", "OBJECT_ID": "1993-036HX", "EPOCH": "2025-12-06T10:57:05.599584", "MEAN_MOTION": 14.94205177, "ECCENTRICITY": 0.00140551, "INCLINATION": 74.0196, "RA_OF_ASC_NODE": 161.9409, "ARG_OF_PERICENTER": 196.4684, "MEAN_ANOMALY": 163.6045, "EPHEMERIS_TYPE": 0, "CLASSIFICATION_TYPE": "U", "NORAD_CAT_ID": 34036, "ELEMENT_SET_NO": 999, "REV_AT_EPOCH": 88476, "BSTAR": 0.0069014103, "MEAN_MOTION_DOT": 0.00074878, "MEAN_MOTION_DDOT": 0}, "tle": {"line1": "1 34036U 93036HX  25340.45631481  .00074878  00000+0  69014-2 0  9998", "line2": "2 34036  74.0196 161.9409 0014055 196.4684 163.6045 14.94205177884766"}}, "geometry": {"type": "Point", "coordinates": [163.58843448677447, 8.519790074227474]}}, {"type": "Feature", "properties": {"norad_id": 34037, "name": "COSMOS 2251 DEB", "group": "cosmos-2251-debris", "lat": -69.30300257050186, "lon": -69.61054807419755, "alt_km": 813.1995972910008, "timestamp": "2025-12-06T20:37:56.468999+00:00", "meta": {"OBJECT_NAME": "COSMOS 2251 DEB", "OBJECT_ID": "1993-036HY", "EPOCH": "2025-12-06T12:44:59.605152", "MEAN_MOTION": 14.34640042, "ECCENTRICITY": 0.00522534, "INCLINATION": 74.0527, "RA_OF_ASC_NODE": 61.8052, "ARG_OF_PERICENTER": 113.7081, "MEAN_ANOMALY": 246.9566, "EPHEMERIS_TYPE": 0, "CLASSIFICATION_TYPE": "U", "NORAD_CAT_ID": 34037, "ELEMENT_SET_NO": 999, "REV_AT_EPOCH": 87628, "BSTAR": 0.0010346895, "MEAN_MOTION_DOT": 2.947e-05, "MEAN_MOTION_DDOT": 0}, "tle": {"line1": "1 34037U 93036HY  25340.53124543  .00002947  00000+0  10347-2 0  9997", "line2": "2 34037  74.0527  61.8052 0052253 113.7081 246.9566 14.34640042876281"}}, "geometry": {"type": "Point", "coordinates": [-69.61054807419755, -69.30300257050186]}}, {"type": "Feature", "properties": {"norad_id": 34040, "name": "COSMOS 2251 DEB", "group": "cosmos-2251-debris", "lat": 63.11224972382452, "lon": -138.99705179433175, "alt_km": 953.7352974434216, "timestamp": "2025-12-06T20:37:56.469010+00:00", "meta": {"OBJECT_NAME": "COSMOS 2251 DEB", "OBJECT_ID": "1993-036JB", "EPOCH": "2025-12-06T14:51:09.159264", "MEAN_MOTION": 13.68364807, "ECCENTRICITY": 0.03428678, "INCLINATION": 73.9558, "RA_OF_ASC_NODE": 75.9766, "ARG_OF_PERICENTER": 30.612, "MEAN_ANOMALY": 331.4517, "EPHEMERIS_TYPE": 0, "CLASSIFICATION_TYPE": "U", "NORAD_CAT_ID": 34040, "ELEMENT_SET_NO": 999, "REV_AT_EPOCH": 83516, "BSTAR": 0.00059436298, "MEAN_MOTION_DOT": 7.44e-06, "MEAN_MOTION_DDOT": 0}, "tle": {"line1": "1 34040U 93036JB  25340.61885601  .00000744  00000+0  59436-3 0  9995", "line2": "2 34040  73.9558  75.9766 0342867  30.6120 331.4517 13.68364807835165"}}, "geometry": {"type": "Point", "coordinates": [-138.99705179433175, 63.11224972382452]}}, {"type": "Feature", "properties": {"norad_id": 34045, "name": "COSMOS 2251 DEB", "group": "cosmos-2251-debris", "lat": -44.75948875142715, "lon": -54.89570423172155, "alt_km": 785.7203863356981, "timestamp": "2025-12-06T20:37:56.469021+00:00", "meta": {"OBJECT_NAME": "COSMOS 2251 DEB", "OBJECT_ID": "1993-036JG", "EPOCH": "2025-12-06T05:52:31.970208", "MEAN_MOTION": 14.34063286, "ECCENTRICITY": 0.00254336, "INCLINATION": 74.0387, "RA_OF_ASC_NODE": 322.7164, "ARG_OF_PERICENTER": 48.1522, "MEAN_ANOMALY": 332.0795, "EPHEMERIS_TYPE": 0, "CLASSIFICATION_TYPE": "U", "NORAD_CAT_ID": 34045, "ELEMENT_SET_NO": 999, "REV_AT_EPOCH": 87940, "BSTAR": 0.00018331438, "MEAN_MOTION_DOT": 4.88e-06, "MEAN_MOTION_DDOT": 0}, "tle": {"line1": "1 34045U 93036JG  25340.24481447  .00000488  00000+0  18331-3 0  9993", "line2": "2 34045  74.0387 322.7164 0025433  48.1522 332.0795 14.34063286879405"}}, "geometry": {"type": "Point", "coordinates": [-54.89570423172155, -44.75948875142715]}}, {"type": "Feature", "properties": {"norad_id": 34046, "name": "COSMOS 2251 DEB", "group": "cosmos-2251-debris", "lat": 37.85718000085524, "lon": 34.30489221898567, "alt_km": 713.090182239479, "timestamp": "2025-12-06T20:37:56.469031+00:00", "meta": {"OBJECT_NAME": "COSMOS 2251 DEB", "OBJECT_ID": "1993-036JH", "EPOCH": "2025-12-06T10:48:52.172640", "MEAN_MOTION": 14.46397412, "ECCENTRICITY": 0.0074703, "INCLINATION": 74.0398, "RA_OF_ASC_NODE": 22.2157, "ARG_OF_PERICENTER": 107.5091, "MEAN_ANOMALY": 323.8091, "EPHEMERIS_TYPE": 0, "CLASSIFICATION_TYPE": "U", "NORAD_CAT_ID": 34046, "ELEMENT_SET_NO": 999, "REV_AT_EPOCH": 87735, "BSTAR": 0.0020752421, "MEAN_MOTION_DOT": 7.698e-05, "MEAN_MOTION_DDOT": 0}, "tle": {"line1": "1 34046U 93036JH  25340.45060385  .00007698  00000+0  20752-2 0  9990", "line2": "2 34046  74.0398  22.2157 0074703 107.5091 323.8091 14.46397412877350"}}, "geometry": {"type": "Point", "coordinates": [34.30489221898567, 37.85718000085524]}}, {"type": "Feature", "properties": {"norad_id": 34050, "name": "COSMOS 2251 DEB", "group": "cosmos-2251-debris", "lat": -71.22832380155477, "lon": -102.79762387465465, "alt_km": 1069.5075306541348, "timestamp": "2025-12-06T20:37:56.469042+00:00", "meta": {"OBJECT_NAME": "COSMOS 2251 DEB", "OBJECT_ID": "1993-036JM", "EPOCH": "2025-12-06T09:09:45.893952", "MEAN_MOTION": 13.96165357, "ECCENTRICITY": 0.02146149, "INCLINATION": 74.0887, "RA_OF_ASC_NODE": 20.9585, "ARG_OF_PERICENTER": 86.9094, "MEAN_ANOMALY": 291.642, "EPHEMERIS_TYPE": 0, "CLASSIFICATION_TYPE": "U", "NORAD_CAT_ID": 34050, "ELEMENT_SET_NO": 999, "REV_AT_EPOCH": 85343, "BSTAR": 0.00092583138, "MEAN_MOTION_DOT": 1.522e-05, "MEAN_MOTION_DDOT": 0}, "tle": {"line1": "1 34050U 93036JM  25340.38178118  .00001522  00000+0  92583-3 0  9993", "line2": "2 34050  74.0887  20.9585 0214614  86.9094 291.6420 13.96165357853434"}}, "geometry": {"type": "Point", "coordinates": [-102.79762387465465, -71.22832380155477]}}, {"type": "Feature", "properties": {"norad_id": 34053, "name": "COSMOS 2251 DEB", "group": "cosmos-2251-debris", "lat": 27.44892386650496, "lon": 62.98659246565148, "alt_km": 1169.7429842146676, "timestamp": "2025-12-06T20:37:56.469053+00:00", "meta": {"OBJECT_NAME": "COSMOS 2251 DEB", "OBJECT_ID": "1993-036JQ", "EPOCH": "2025-12-06T03:54:27.965952", "MEAN_MOTION": 13.49144774, "ECCENTRICITY": 0.04218381, "INCLINATION": 73.8444, "RA_OF_ASC_NODE": 252.7687, "ARG_OF_PERICENTER": 42.4184, "MEAN_ANOMALY": 320.8724, "EPHEMERIS_TYPE": 0, "CLASSIFICATION_TYPE": "U", "NORAD_CAT_ID": 34053, "ELEMENT_SET_NO": 999, "REV_AT_EPOCH": 82595, "BSTAR": 0.0012959528, "MEAN_MOTION_DOT": 1.39e-05, "MEAN_MOTION_DDOT": 0}, "tle": {"line1": "1 34053U 93036JQ  25340.16282368  .00001390  00000+0  12960-2 0  9998", "line2": "2 34053  73.8444 252.7687 0421838  42.4184 320.8724 13.49144774825952"}}, "geometry": {"type": "Point", "coordinates": [62.98659246565148, 27.44892386650496]}}, {"type": "Feature", "properties": {"norad_id": 34056, "name": "COSMOS 2251 DEB", "group": "cosmos-2251-debris", "lat": -65.65040369975317, "lon": -53.9478995701596, "alt_km": 867.5052656729385, "timestamp": "2025-12-06T20:37:56.469063+00:00", "meta": {"OBJECT_NAME": "COSMOS 2251 DEB", "OBJECT_ID": "1993-036JT", "EPOCH": "2025-12-06T14:53:26.583648", "MEAN_MOTION": 14.20514606, "ECCENTRICITY": 0.01244021, "INCLINATION": 74.0602, "RA_OF_ASC_NODE": 87.3189, "ARG_OF_PERICENTER": 136.7503, "MEAN_ANOMALY": 330.3427, "EPHEMERIS_TYPE": 0, "CLASSIFICATION_TYPE": "U", "NORAD_CAT_ID": 34056, "ELEMENT_SET_NO": 999, "REV_AT_EPOCH": 86324, "BSTAR": 0.0020368601, "MEAN_MOTION_DOT": 4.708e-05, "MEAN_MOTION_DDOT": 0}, "tle": {"line1": "1 34056U 93036JT  25340.62044657  .00004708  00000+0  20369-2 0  9997", "line2": "2 34056  74.0602  87.3189 0124402 136.7503 330.3427 14.20514606863247"}}, "geometry": {"type": "Point", "coordinates": [-53.9478995701596, -65.65040369975317]}}]}